[{"OBJECT_NAME":"STARLINK-4795","OBJECT_ID":"2022-114AQ","EPOCH":"2026-03-09T21:46:42.885984","MEAN_MOTION":15.08834203,"ECCENTRICITY":0.00010775,"INCLINATION":53.2162,"RA_OF_ASC_NODE":283.2258,"ARG_OF_PERICENTER":80.8504,"MEAN_ANOMALY":279.261,"EPHEMERIS_TYPE":0,"CLASSIFICATION_TYPE":"U","NORAD_CAT_ID":53856,"ELEMENT_SET_NO":999,"REV_AT_EPOCH":19314,"BSTAR":0.00034166264,"MEAN_MOTION_DOT":5.153e-5,"MEAN_MOTION_DDOT":0},{"OBJECT_NAME":"CZ-6A DEB","OBJECT_ID":"2024-140TY","EPOCH":"2026-03-09T15:25:48.532512","MEAN_MOTION":14.77098477,"ECCENTRICITY":0.0162256,"INCLINATION":89.1158,"RA_OF_ASC_NODE":288.8548,"ARG_OF_PERICENTER":182.348,"MEAN_ANOMALY":177.7001,"EPHEMERIS_TYPE":0,"CLASSIFICATION_TYPE":"U","NORAD_CAT_ID":61311,"ELEMENT_SET_NO":999,"REV_AT_EPOCH":8223,"BSTAR":0.00066942,"MEAN_MOTION_DOT":5.907e-5,"MEAN_MOTION_DDOT":0}]
